OBJECT_NAME,OBJECT_ID,EPOCH,MEAN_MOTION,ECCENTRICITY,INCLINATION,RA_OF_ASC_NODE,ARG_OF_PERICENTER,MEAN_ANOMALY,EPHEMERIS_TYPE,CLASSIFICATION_TYPE,NORAD_CAT_ID,ELEMENT_SET_NO,REV_AT_EPOCH,BSTAR,MEAN_MOTION_DOT,MEAN_MOTION_DDOT
ONEWEB-0667,2023-029AH,2026-06-13T20:18:02.490624,13.20771813,.00017986,87.9196,275.0960,97.3848,262.7489,0,U,55827,999,16070,-.11060175E-3,-.32E-6,0
ONEWEB-0669,2023-029AJ,2026-06-13T20:10:45.766272,13.20771722,.00022921,87.9190,275.1084,88.0830,272.0566,0,U,55828,999,16070,-.12850033E-3,-.39E-6,0
ONEWEB-0670,2023-029AK,2026-06-13T20:42:53.024544,13.14502828,.00017073,87.8949,290.4039,88.4042,271.7283,0,U,55829,999,15899,.2120668E-3,.91E-6,0
ONEWEB-0671,2023-029AL,2026-06-13T21:06:02.098080,13.19724233,.00016946,87.9167,305.6350,95.9854,264.1471,0,U,55830,999,15846,.30001113E-4,.25E-6,0
ONEWEB-0672,2023-029AM,2026-06-13T20:03:28.885536,13.20772002,.00022369,87.9191,275.1026,99.8471,260.2915,0,U,55831,999,16070,-.18145785E-3,-.61E-6,0
ONEWEB-0673,2023-029AN,2026-06-13T22:22:14.103552,13.19727041,.0001724,87.9172,305.6156,95.3679,264.7651,0,U,55832,999,15847,-.18112633E-3,-.6E-6,0
ONEWEB-0674,2023-029AP,2026-06-13T21:46:48.602208,13.14503835,.00017477,87.8951,290.3719,86.8633,273.2697,0,U,55833,999,15898,-.57692886E-3,-.201E-5,0
ONEWEB-0675,2023-029AQ,2026-06-13T20:54:40.683744,13.19724358,.00020874,87.9165,305.6379,104.7013,255.4351,0,U,55834,999,15848,.1391117E-5,.14E-6,0
ONEWEB-0720,2023-029AR,2026-06-13T22:32:28.364352,13.19724544,.00015852,87.9164,305.6243,102.9114,257.2196,0,U,55835,999,15841,-.9547042E-5,.9E-7,0
ONEWEB-0537,2023-043A,2026-06-13T22:14:29.585184,13.16593999,.00022627,87.9097,229.4191,99.9279,260.2108,0,U,56046,999,15853,.21762815E-3,.96E-6,0
ONEWEB-0538,2023-043B,2026-06-13T22:05:22.409664,13.16594403,.00021004,87.9099,229.4228,105.5025,254.6338,0,U,56047,999,15854,.8094753E-4,.44E-6,0
ONEWEB-0546,2023-043C,2026-06-13T21:47:08.119968,13.16594745,.00027706,87.9099,229.4252,98.7400,261.4045,0,U,56048,999,15853,-.10720037E-4,.9E-7,0
ONEWEB-0547,2023-043D,2026-06-13T22:01:10.610688,13.21825780,.00019356,87.9260,244.6244,103.3303,256.8047,0,U,56049,999,15779,.47553841E-4,.33E-6,0
ONEWEB-0548,2023-043E,2026-06-13T22:22:27.129216,13.16596484,.00020263,87.9094,229.4170,83.6696,276.4665,0,U,56050,999,15853,.31484559E-3,.133E-5,0
ONEWEB-0549,2023-043F,2026-06-13T21:52:42.304800,13.21825605,.0002057,87.9253,244.6324,109.8161,250.3195,0,U,56051,999,15779,-.97070116E-4,-.27E-6,0
ONEWEB-0550,2023-043G,2026-06-13T17:55:20.171136,13.21825566,.00019323,87.9255,244.6626,93.4033,266.7322,0,U,56052,999,15777,-.11781025E-3,-.36E-6,0
ONEWEB-0551,2023-043H,2026-06-13T19:24:32.440320,13.15549469,.0001857,87.9001,259.8992,110.4771,249.6559,0,U,56053,999,15595,.60928728E-4,.36E-6,0
ONEWEB-0552,2023-043J,2026-06-13T17:48:02.103264,13.21827741,.00018098,87.9252,244.6694,99.6705,260.4634,0,U,56054,999,15777,-.29311217E-3,-.108E-5,0
ONEWEB-0553,2023-043K,2026-06-13T21:56:14.987904,13.16594199,.00024463,87.9097,229.4244,95.5702,264.5708,0,U,56055,999,15854,.92135583E-4,.48E-6,0
ONEWEB-0554,2023-043L,2026-06-13T21:38:01.623552,13.16588489,.00020033,87.9095,229.4361,83.0232,277.1127,0,U,56056,999,15852,.85990848E-3,.342E-5,0
ONEWEB-0555,2023-043M,2026-06-13T22:32:42.334368,13.16596296,.00026561,87.9101,229.4165,96.4599,263.6834,0,U,56057,999,15853,.31929655E-3,.135E-5,0
ONEWEB-0557,2023-043N,2026-06-13T21:03:48.502080,13.16594244,.00028672,87.9101,229.4387,74.5010,285.6437,0,U,56058,999,15852,.6064871E-5,.15E-6,0
ONEWEB-0558,2023-043P,2026-06-13T17:38:20.706432,13.21827653,.00021146,87.9254,244.6655,108.2767,251.8597,0,U,56059,999,15778,-.67173831E-4,-.15E-6,0
ONEWEB-0559,2023-043Q,2026-06-13T22:48:23.372064,13.21827446,.00018942,87.9257,244.6175,104.3949,255.7396,0,U,56060,999,15782,.1246084E-3,.64E-6,0
ONEWEB-0566,2023-043R,2026-06-13T22:38:43.723104,13.21826698,.00018641,87.9256,244.6171,107.8582,252.2755,0,U,56061,999,15780,.14659515E-3,.74E-6,0
ONEWEB-0568,2023-043S,2026-06-13T21:28:53.722272,13.16594696,.00023856,87.9098,229.4250,96.8394,263.3008,0,U,56062,999,15854,-.31378477E-4,.1E-7,0
ONEWEB-0574,2023-043T,2026-06-13T22:29:01.432032,13.21825044,.0002129,87.9266,244.6213,94.2759,265.8618,0,U,56063,999,15784,-.21230873E-3,-.75E-6,0
ONEWEB-0575,2023-043U,2026-06-13T21:19:46.647840,13.16594565,.00023326,87.9099,229.4226,88.8509,271.2889,0,U,56064,999,15853,-.54699306E-4,-.8E-7,0
ONEWEB-0576,2023-043V,2026-06-13T20:52:24.516480,13.16594292,.00021732,87.9101,229.4340,92.2625,267.8755,0,U,56065,999,15852,.18724967E-3,.84E-6,0
ONEWEB-0577,2023-043W,2026-06-13T21:01:32.192256,13.16593765,.00023309,87.9103,229.4305,78.3734,281.7658,0,U,56066,999,15855,.57141744E-4,.35E-6,0
