[
  {
    "name": "ONEWEB-0667",
    "noradId": "55827",
    "line1": "1 55827U 23029AH  26164.84586216 -.00000032  00000+0 -11060-3 0  9999",
    "line2": "2 55827  87.9196 275.0960 0001798  97.3848 262.7489 13.20771813160707"
  },
  {
    "name": "ONEWEB-0669",
    "noradId": "55828",
    "line1": "1 55828U 23029AJ  26164.84080748 -.00000039  00000+0 -12850-3 0  9994",
    "line2": "2 55828  87.9190 275.1084 0002292  88.0830 272.0566 13.20771722160707"
  },
  {
    "name": "ONEWEB-0670",
    "noradId": "55829",
    "line1": "1 55829U 23029AK  26164.86311371  .00000091  00000+0  21207-3 0  9998",
    "line2": "2 55829  87.8949 290.4039 0001707  88.4042 271.7283 13.14502828158990"
  },
  {
    "name": "ONEWEB-0671",
    "noradId": "55830",
    "line1": "1 55830U 23029AL  26164.87919095  .00000025  00000+0  30001-4 0  9998",
    "line2": "2 55830  87.9167 305.6350 0001694  95.9854 264.1471 13.19724233158467"
  },
  {
    "name": "ONEWEB-0672",
    "noradId": "55831",
    "line1": "1 55831U 23029AM  26164.83575099 -.00000061  00000+0 -18146-3 0  9994",
    "line2": "2 55831  87.9191 275.1026 0002236  99.8471 260.2915 13.20772002160706"
  },
  {
    "name": "ONEWEB-0673",
    "noradId": "55832",
    "line1": "1 55832U 23029AN  26164.93210768 -.00000060  00000+0 -18113-3 0  9998",
    "line2": "2 55832  87.9172 305.6156 0001724  95.3679 264.7651 13.19727041158479"
  },
  {
    "name": "ONEWEB-0674",
    "noradId": "55833",
    "line1": "1 55833U 23029AP  26164.90750697 -.00000201  00000+0 -57693-3 0  9999",
    "line2": "2 55833  87.8951 290.3719 0001747  86.8633 273.2697 13.14503835158988"
  },
  {
    "name": "ONEWEB-0675",
    "noradId": "55834",
    "line1": "1 55834U 23029AQ  26164.87130421  .00000014  00000+0  13911-5 0  9990",
    "line2": "2 55834  87.9165 305.6379 0002087 104.7013 255.4351 13.19724358158483"
  },
  {
    "name": "ONEWEB-0720",
    "noradId": "55835",
    "line1": "1 55835U 23029AR  26164.93921718  .00000009  00000+0 -95470-5 0  9990",
    "line2": "2 55835  87.9164 305.6243 0001585 102.9114 257.2196 13.19724544158414"
  },
  {
    "name": "ONEWEB-0537",
    "noradId": "56046",
    "line1": "1 56046U 23043A   26164.92673131  .00000096  00000+0  21763-3 0  9990",
    "line2": "2 56046  87.9097 229.4191 0002262  99.9279 260.2108 13.16593999158534"
  },
  {
    "name": "ONEWEB-0538",
    "noradId": "56047",
    "line1": "1 56047U 23043B   26164.92039826  .00000044  00000+0  80948-4 0  9992",
    "line2": "2 56047  87.9099 229.4228 0002100 105.5025 254.6338 13.16594403158546"
  },
  {
    "name": "ONEWEB-0546",
    "noradId": "56048",
    "line1": "1 56048U 23043C   26164.90773287  .00000009  00000+0 -10720-4 0  9990",
    "line2": "2 56048  87.9099 229.4252 0002770  98.7400 261.4045 13.16594745158536"
  },
  {
    "name": "ONEWEB-0547",
    "noradId": "56049",
    "line1": "1 56049U 23043D   26164.91748392  .00000033  00000+0  47554-4 0  9992",
    "line2": "2 56049  87.9260 244.6244 0001935 103.3303 256.8047 13.21825780157793"
  },
  {
    "name": "ONEWEB-0548",
    "noradId": "56050",
    "line1": "1 56050U 23043E   26164.93225844  .00000133  00000+0  31485-3 0  9994",
    "line2": "2 56050  87.9094 229.4170 0002026  83.6696 276.4665 13.16596484158533"
  },
  {
    "name": "ONEWEB-0549",
    "noradId": "56051",
    "line1": "1 56051U 23043F   26164.91160075 -.00000027  00000+0 -97070-4 0  9994",
    "line2": "2 56051  87.9253 244.6324 0002057 109.8161 250.3195 13.21825605157795"
  },
  {
    "name": "ONEWEB-0550",
    "noradId": "56052",
    "line1": "1 56052U 23043G   26164.74676124 -.00000036  00000+0 -11781-3 0  9997",
    "line2": "2 56052  87.9255 244.6626 0001932  93.4033 266.7322 13.21825566157777"
  },
  {
    "name": "ONEWEB-0551",
    "noradId": "56053",
    "line1": "1 56053U 23043H   26164.80870880  .00000036  00000+0  60929-4 0  9997",
    "line2": "2 56053  87.9001 259.8992 0001857 110.4771 249.6559 13.15549469155954"
  },
  {
    "name": "ONEWEB-0552",
    "noradId": "56054",
    "line1": "1 56054U 23043J   26164.74169101 -.00000108  00000+0 -29311-3 0  9999",
    "line2": "2 56054  87.9252 244.6694 0001809  99.6705 260.4634 13.21827741157772"
  },
  {
    "name": "ONEWEB-0553",
    "noradId": "56055",
    "line1": "1 56055U 23043K   26164.91406236  .00000048  00000+0  92136-4 0  9999",
    "line2": "2 56055  87.9097 229.4244 0002446  95.5702 264.5708 13.16594199158547"
  },
  {
    "name": "ONEWEB-0554",
    "noradId": "56056",
    "line1": "1 56056U 23043L   26164.90140768  .00000342  00000+0  85991-3 0  9991",
    "line2": "2 56056  87.9095 229.4361 0002003  83.0232 277.1127 13.16588489158523"
  },
  {
    "name": "ONEWEB-0555",
    "noradId": "56057",
    "line1": "1 56057U 23043M   26164.93937887  .00000135  00000+0  31930-3 0  9995",
    "line2": "2 56057  87.9101 229.4165 0002656  96.4599 263.6834 13.16596296158533"
  },
  {
    "name": "ONEWEB-0557",
    "noradId": "56058",
    "line1": "1 56058U 23043N   26164.87764470  .00000015  00000+0  60649-5 0  9993",
    "line2": "2 56058  87.9101 229.4387 0002867  74.5010 285.6437 13.16594244158522"
  },
  {
    "name": "ONEWEB-0558",
    "noradId": "56059",
    "line1": "1 56059U 23043P   26164.73496188 -.00000015  00000+0 -67174-4 0  9998",
    "line2": "2 56059  87.9254 244.6655 0002114 108.2767 251.8597 13.21827653157786"
  },
  {
    "name": "ONEWEB-0559",
    "noradId": "56060",
    "line1": "1 56060U 23043Q   26164.95027051  .00000064  00000+0  12461-3 0  9993",
    "line2": "2 56060  87.9257 244.6175 0001894 104.3949 255.7396 13.21827446157826"
  },
  {
    "name": "ONEWEB-0566",
    "noradId": "56061",
    "line1": "1 56061U 23043R   26164.94356161  .00000074  00000+0  14660-3 0  9994",
    "line2": "2 56061  87.9256 244.6171 0001864 107.8582 252.2755 13.21826698157807"
  },
  {
    "name": "ONEWEB-0568",
    "noradId": "56062",
    "line1": "1 56062U 23043S   26164.89506623  .00000001  00000+0 -31378-4 0  9996",
    "line2": "2 56062  87.9098 229.4250 0002385  96.8394 263.3008 13.16594696158548"
  },
  {
    "name": "ONEWEB-0574",
    "noradId": "56063",
    "line1": "1 56063U 23043T   26164.93682213 -.00000075  00000+0 -21231-3 0  9990",
    "line2": "2 56063  87.9266 244.6213 0002129  94.2759 265.8618 13.21825044157843"
  },
  {
    "name": "ONEWEB-0575",
    "noradId": "56064",
    "line1": "1 56064U 23043U   26164.88873435 -.00000008  00000+0 -54699-4 0  9994",
    "line2": "2 56064  87.9099 229.4226 0002332  88.8509 271.2889 13.16594565158534"
  },
  {
    "name": "ONEWEB-0576",
    "noradId": "56065",
    "line1": "1 56065U 23043V   26164.86972820  .00000084  00000+0  18725-3 0  9992",
    "line2": "2 56065  87.9101 229.4340 0002173  92.2625 267.8755 13.16594292158526"
  },
  {
    "name": "ONEWEB-0577",
    "noradId": "56066",
    "line1": "1 56066U 23043W   26164.87606704  .00000035  00000+0  57142-4 0  9992",
    "line2": "2 56066  87.9103 229.4305 0002330  78.3734 281.7658 13.16593765158555"
  }
]